AKEBONO (EXOS-D)        
1 19822U 89016A   20026.74804931  .00020832  32556-6  35877-3 0  9997
2 19822  75.0198 242.5072 1756602 166.4299 199.1142 12.03104653 22398
HST                     
1 20580U 90037B   20026.87565446  .00000310  00000-0  78428-5 0  9997
2 20580  28.4682 182.6466 0002733   0.4400 133.9542 15.09329487434492
POLAR                   
1 23802U 96013A   20025.67701428  .00000222  00000-0  00000-0 0  9994
2 23802  78.7064 251.8157 6467023 288.0486  15.0071  1.29845725114544
SWAS                    
1 25560U 98071A   20027.16607382  .00000015  00000-0  99831-5 0  9998
2 25560  69.8990  21.6333 0009569 214.6915 145.3618 14.93823900147993
ORSTED                  
1 25635U 99008B   20027.16710311  .00000040  00000-0  16767-4 0  9993
2 25635  96.4676  84.8559 0140392  84.7826 276.9376 14.48186415104304
CXO                     
1 25867U 99040B   20007.84510028  .00000630  00000-0  00000+0 0  9995
2 25867  65.0303 271.1294 7489437 230.2672 359.9053  0.37800418 19585
XMM-NEWTON              
1 25989U 99066A   20027.95366156 -.00000038  00000-0  00000+0 0  9996
2 25989  71.1298 325.1205 7318753  93.9304   0.5815  0.50127147 25679
TERRA                   
1 25994U 99068A   20027.23056983 -.00000012  00000-0  74886-5 0  9990
2 25994  98.2067 103.4737 0001550 106.8259 253.3131 14.57087761 69605
CLUSTER II-FM7 (SAMBA)  
1 26410U 00041A   20029.14457888  .00000049  00000-0  00000+0 0  9998
2 26410 131.6260 340.5847 4266022 179.4739 358.9312  0.44208310 21722
CLUSTER II-FM6 (SALSA)  
1 26411U 00041B   20022.26942426  .00000000  00000-0  00000+0 0  9999
2 26411 131.3177 341.7086 5443130 185.8231 359.0590  0.44222537 20491
CLUSTER II-FM5 (RUMBA)  
1 26463U 00045A   20022.35244409 -.00000115  00000-0  00000+0 0  9994
2 26463 134.9416 341.1615 5073961 185.2538 359.0856  0.44221642 22279
CLUSTER II-FM8 (TANGO)  
1 26464U 00045B   20025.72932592 -.00000066  00000-0  00000+0 0  9991
2 26464 131.6091 340.5507 4260713 179.3626 181.5889  0.44219639 57624
ODIN                    
1 26702U 01007A   20026.32931089  .00000700  00000-0  49615-4 0  9996
2 26702  97.5627  45.6500 0011792  45.6901 314.5292 15.07947049 34649
TIMED                   
1 26998U 01055B   20027.08313079  .00000060  00000-0  10616-4 0  9991
2 26998  74.0706 216.6086 0001823 300.4651  59.6350 14.88163088983366
RHESSI                  
1 27370U 02004A   20027.11339735  .00001540  00000-0  52719-4 0  9996
2 27370  38.0338 335.5554 0013611 252.4095 107.5189 15.32271813992492
INTEGRAL                
1 27540U 02048A   20025.86391882  .00000700  00000-0  00000+0 0  9992
2 27540  52.1577 126.0771 8906181 286.4493   2.6127  0.37583148 17858
CORIOLIS                
1 27640U 03001A   20026.26953426 -.00000004  00000-0  18697-4 0  9990
2 27640  98.7295  37.8708 0015217  88.8829 281.9379 14.19028244883130
SORCE                   
1 27651U 03004A   20027.12516769 -.00000015  00000-0  12693-4 0  9998
2 27651  39.9966  43.7245 0022335  99.6609 260.6705 14.89073781923013
MOST                    
1 27843U 03031D   20027.13964154 -.00000030  00000-0  63678-5 0  9994
2 27843  98.7110  36.5095 0010710 139.5449 220.6525 14.20603879859390
SCISAT 1                
1 27858U 03036A   20027.18641063  .00000003  00000-0  54790-5 0  9995
2 27858  73.9335 105.7338 0008444 336.4702  23.6084 14.77274281886642
SWIFT                   
1 28485U 04047A   20026.87776641  .00000757  00000-0  21255-4 0  9996
2 28485  20.5571 302.9213 0011249  54.8746 305.2741 15.04526275831999
FORMOSAT-3 FM6          
1 29047U 06011A   20026.36359058 -.00000036  00000-0  21471-5 0  9999
2 29047  71.9770  42.0387 0052335 306.7445  52.8891 14.28708405720894
FORMOSAT-3 FM1          
1 29048U 06011B   20027.14923499  .00000018  00000-0  23461-4 0  9992
2 29048  71.9678 311.5131 0045953 264.8982  94.6908 14.28676060723483
FORMOSAT-3 FM5          
1 29049U 06011C   20026.38807281  .00000041  00000-0  32312-4 0  9999
2 29049  72.0209 123.9028 0036961 293.0821  66.6421 14.28758884719165
FORMOSAT-3 FM3          
1 29050U 06011D   20026.17588499  .00000059  00000-0  22875-4 0  9997
2 29050  72.0159 285.0674 0051586 226.6602 133.0246 14.58871791735536
FORMOSAT-3 FM4          
1 29051U 06011E   20027.16137100  .00000007  00000-0  18707-4 0  9999
2 29051  72.0056  24.6514 0068111 172.9365 187.2748 14.28787389721869
FORMOSAT-3 FM2          
1 29052U 06011F   20027.17114459  .00000038  00000-0  30960-4 0  9992
2 29052  72.0346  98.4165 0042341 253.6790 105.9689 14.28890598720192
CLOUDSAT                
1 29107U 06016A   20026.84751275  .00000081  00000-0  25468-4 0  9999
2 29107  98.2155 334.7183 0002752  99.2329 260.9184 14.62375241731646
CALIPSO                 
1 29108U 06016B   20027.18918233  .00000101  00000-0  29350-4 0  9994
2 29108  98.2145 334.8621 0001148  80.6723 279.4608 14.62375412731549
HINODE (SOLAR-B)        
1 29479U 06041A   20026.27164095  .00000016  00000-0  12060-4 0  9996
2 29479  98.1639  39.1139 0018323  98.9225 261.4053 14.65039615712929
SJ-6C                   
1 29505U 06046A   20027.14640523  .00000438  00000-0  45629-4 0  9998
2 29505  97.8220  41.3303 0005612 132.5739 227.5910 14.94791381722351
SJ-6D                   
1 29506U 06046B   20027.23468143 -.00000265  00000-0 -19733-4 0  9992
2 29506  97.8411  41.4573 0001200 198.8832 161.2358 14.93485875721943
AGILE                   
1 31135U 07013A   20025.48800084  .00002053  00000-0  28507-4 0  9991
2 31135   2.4667 239.1020 0011720  87.3678 272.7718 15.32038420709926
AIM                     
1 31304U 07015A   20026.76548839  .00000506  00000-0  32345-4 0  9996
2 31304  97.9270 264.0426 0006336 118.3254 241.8616 15.13398261699105
FGRST (GLAST)           
1 33053U 08029A   20026.29579245  .00000463  00000-0  96887-5 0  9992
2 33053  25.5839 355.2443 0012545 149.2439 210.8833 15.11295955641653
WISE                    
1 36119U 09071A   20026.37356280  .00000509  00000-0  20142-4 0  9998
2 36119  97.3472  64.4044 0003258 142.7308 217.4159 15.29906109561923
SDO                     
1 36395U 10005A   20025.28174275 -.00000094  00000-0  00000+0 0  9990
2 36395  30.0837 123.7569 0000311  11.7710 347.8364  1.00269477 36611
CRYOSAT 2               
1 36508U 10013A   20026.83067086  .00000092  00000-0  22045-4 0  9993
2 36508  92.0279  73.1715 0006546 356.7695   3.3469 14.52173675519550
X-SAT                   
1 37389U 11015C   20027.12859929 -.00000032  00000-0  45402-5 0  9990
2 37389  98.4578  87.9422 0013844 351.5149   8.5804 14.24381379456027
GCOM-W1 (SHIZUKU)       
1 38337U 12025A   20026.44588444  .00000009  00000-0  12141-4 0  9997
2 38337  98.2197 328.4654 0002198  61.7155  49.2341 14.57109388409179
NUSTAR                  
1 38358U 12031A   20025.51454615  .00000857  00000-0  15792-4 0  9992
2 38358   6.0259 234.5630 0011998 332.5646  27.3849 14.88244748414531
NEOSSAT                 
1 39089U 13009D   20027.12173517  .00000001  00000-0  15728-4 0  9998
2 39089  98.4764 231.7341 0011234 356.5622   3.5484 14.34492385362154
IRIS                    
1 39197U 13033A   20027.10047426  .00000064  00000-0  15882-4 0  9992
2 39197  97.9516 210.8001 0027049 332.6593  27.3193 14.78693711355064
HISAKI (SPRINT-A)       
1 39253U 13049A   20026.81638259  .00000138  00000-0  96346-4 0  9995
2 39253  29.7181 199.0300 0137119 186.2044 173.6825 13.55214445315680
CASSIOPE                
1 39265U 13055A   20026.83477053  .00001922  00000-0  53786-4 0  9993
2 39265  80.9679 103.4387 0663548 359.6429   0.4184 14.28734044327413
STSAT-3                 
1 39422U 13066G   20027.12219296 -.00000182  00000-0 -13370-4 0  9990
2 39422  97.5301  66.7653 0021904 309.7453  50.1870 14.89791754335947
SWARM B                 
1 39451U 13067A   20026.36798620  .00000259  00000-0  98869-5 0  9991
2 39451  87.7538 322.7256 0003786  72.4998 287.6661 15.21671070328203
SWARM A                 
1 39452U 13067B   20026.38829740  .00000893  00000-0  18393-4 0  9999
2 39452  87.3653 182.6981 0002355 101.1633 258.9889 15.44286701347104
SWARM C                 
1 39453U 13067C   20026.84180603  .00000869  00000-0  17871-4 0  9992
2 39453  87.3506 183.7787 0002376 101.3748 258.7777 15.44287190347174
BRITE-CA1 (TORONTO)     
1 40020U 14033L   20027.09602208  .00000024  00000-0  12353-4 0  9999
2 40020  97.7313 223.4292 0087748 166.1356 194.2288 14.66617194299890
OCO 2                   
1 40059U 14035A   20026.90132650  .00000008  00000-0  11941-4 0  9995
2 40059  98.2202 329.6421 0001234  78.5994 281.5343 14.57098767296267
BRITE-PL2 (HEWELIUSZ)   
1 40119U 14049B   20027.16361698  .00000101  00000-0  18461-4 0  9990
2 40119  97.8983 120.7973 0016771 210.1436 149.8814 14.84464698294676
RESURS P2               
1 40360U 14087A   20027.18666333  .00000421  00000-0  15401-4 0  9992
2 40360  97.2518 118.7526 0008602 345.9095  72.0154 15.33371979284515
MMS 1                   
1 40482U 15011A   20019.61597222 -.00002196  00000-0  00000-0 0  9991
2 40482  23.6146 120.3119 8799372  17.6135 156.6419  0.28570819 10820
MMS 2                   
1 40483U 15011B   20016.77099537 -.00001667  00000-0  00000+0 0  9993
2 40483  23.5666 120.3526 8804083  17.5087 224.2985  0.28549439 10756
MMS 3                   
1 40484U 15011C   20016.77789352 -.00001669  00000-0  00000+0 0  9997
2 40484  23.5704 120.3448 8803740  17.5178 225.0162  0.28544429 10753
MMS 4                   
1 40485U 15011D   20016.77783565 -.00001668  00000-0  00000+0 0  9997
2 40485  23.5666 120.3560 8804458  17.5127 224.9837  0.28549406 10754
ASTROSAT                
1 40930U 15052A   20026.28101823  .00000693  00000-0  83327-5 0  9990
2 40930   5.9967 282.8045 0008115  40.6350 319.4383 14.76292056234020
DAMPE                   
1 41173U 15078A   20027.13398723  .00000004  00000-0  30597-5 0  9997
2 41173  97.3163  24.4953 0015007  38.6581  25.6454 15.23843032228726
PISAT                   
1 41784U 16059B   20027.15166510  .00000047  00000-0  18189-4 0  9993
2 41784  98.0403  87.3592 0032759  43.7280 316.6508 14.63483972178095
HXMT (HUIYAN)           
1 42758U 17034A   20027.25126719  .00000142  00000-0  22594-4 0  9998
2 42758  43.0185  96.0526 0011571 219.5663 183.3707 15.08742037144391
FLYING LAPTOP           
1 42831U 17042G   20026.92984414 -.00000031  00000-0  21864-5 0  9994
2 42831  97.5410 275.3276 0015206  44.6515 315.5926 14.91080645138053
PICSAT                  
1 43132U 18004X   20027.18550411  .00000879  00000-0  39160-4 0  9999
2 43132  97.4642  99.3147 0009485 184.2266 175.8892 15.24058362113387
ZHANGZHENG-1 (CSES)     
1 43194U 18015C   20027.15485150  .00000723  00000-0  35764-4 0  9997
2 43194  97.4173 154.2208 0013598 243.6202 240.3028 15.20895402110031
ICON                    
1 44628U 19068A   20026.78586879  .00000446  00000-0  23504-4 0  9998
2 44628  26.9912 244.1811 0018827 219.6655 140.2517 14.91628652 16108